SHUNTIAN                
1 44886U 19093H   26141.77181215  .00001735  00000+0  16378-3 0  9991
2 44886  97.7993 230.0708 0012389 148.2620 211.9349 14.95003589348235
ELEKTRO-L 3             
1 44903U 19095A   26141.74881086 -.00000104  00000+0  00000+0 0  9994
2 44903   0.1908  80.4358 0001013 323.2091 181.2525  1.00270996 23444
GONETS-M 14             
1 44905U 19096A   26141.72523514  .00000083  00000+0  52952-3 0  9996
2 44905  82.5218 101.0454 0012408 206.9560 153.0876 12.42869015290399
GONETS-M 15             
1 44906U 19096B   26141.75466543  .00000149  00000+0  10073-2 0  9998
2 44906  82.5237 101.4844 0014004 231.9040 128.0777 12.42870583290364
GONETS-M 16             
1 44907U 19096C   26141.70084297  .00000166  00000+0  11285-2 0  9991
2 44907  82.5183 100.4827 0009678 279.0833  80.9151 12.42891226290346
RS-44 & BREEZE-KM R/B   
1 44909U 19096E   26141.57978244  .00000020  00000+0  37434-4 0  9997
2 44909  82.5229 357.3892 0216970 206.3471 152.6467 12.79748401298947
JILIN-1 KUANFU 01       
1 45016U 20003A   26141.72379172  .00001605  00000+0  10102-3 0  9991
2 45016  97.5031 216.1979 0010663  41.9626 318.2418 15.10553968351337
XINGYUN-2 01            
1 45602U 20028A   26141.73197957  .00001191  00000+0  73735-4 0  9991
2 45602  97.4863 134.6611 0007658 302.3776  57.6713 15.11677062330845
XINGYUN-2 02            
1 45603U 20028B   26141.70596259  .00000924  00000+0  58446-4 0  9992
2 45603  97.5073 148.1655 0011403  12.2551 347.8954 15.11411075330839
HAIYANG-1D              
1 45721U 20036A   26141.74072919  .00000019  00000+0  22027-4 0  9999
2 45721  98.4552  83.9974 0001791 205.1221 154.9877 14.34162862311187
M2 PATHFINDER           
1 45727U 20037E   26141.51175674  .00000931  00000+0  70978-4 0  9994
2 45727  97.8155 332.4456 0010057 238.9667 121.0571 15.04541732321480
GAOFEN DUOMO (GFDM)     
1 45856U 20042A   26141.71619270  .00000300  00000+0  49739-4 0  9991
2 45856  97.7754 202.5632 0011568 151.7613 208.4227 14.76836963317104
ZIYUAN 3-03 (ZY 3-03)   
1 45939U 20051A   26141.74428361  .00001781  00000+0  82647-4 0  9994
2 45939  97.2833 210.3227 0005715  51.4980 308.6767 15.21287190323322
NEMO-HD                 
1 46277U 20061F   26141.69272363  .00007082  00000+0  15729-3 0  9990
2 46277  97.1929 203.9224 0002685 113.0802 247.0730 15.43995613317890
NAPA-1                  
1 46320U 20061BA  26141.71147955  .00042372  00000+0  44175-3 0  9998
2 46320  97.2477 215.0913 0001838 140.1344 220.0051 15.64426013317598
JILIN-1 GAOFEN 3E       
1 46457U 20065D   26141.76406194  .00039390  00000+0  47875-3 0  9997
2 46457  97.2277 193.8219 0010278 247.9305 112.0861 15.60411542315639
JILIN-1 GAOFEN 3F       
1 46458U 20065E   26141.74676073  .00035120  00000+0  46528-3 0  9992
2 46458  97.2231 191.2568 0011894 236.8938 123.1177 15.58127197315587
JILIN-1 GAOFEN 3G       
1 46459U 20065F   26141.74058322  .00057386  00000+0  54816-3 0  9991
2 46459  97.2302 197.6545 0012654 144.6593 215.5509 15.66466691315792
JILIN-1 GAOFEN 3H       
1 46460U 20065G   26141.72556564  .00047364  00000+0  50346-3 0  9991
2 46460  97.2247 194.1088 0008555  95.2012 265.0224 15.63865947315741
HAIYANG-2C              
1 46469U 20066A   26141.77818707 -.00000203  00000+0 -11034-3 0  9990
2 46469  65.9981 281.0353 0009867 239.3751 120.6345 13.83371488285845
HJ-2A                   
1 46478U 20067A   26141.73648780  .00000679  00000+0  10448-3 0  9992
2 46478  97.8823 220.7320 0003591  16.8026 343.3302 14.76574512304350
HJ-2B                   
1 46479U 20067B   26141.77292979  .00000348  00000+0  57142-4 0  9998
2 46479  97.8886 221.7694 0001196  77.3034 282.8310 14.76518264304364
GONETS-M 17             
1 46486U 20068A   26141.72560794 -.00000028  00000+0 -27545-3 0  9995
2 46486  82.5000   3.9667 0023431  92.3872 267.9890 12.42872040255878
GONETS-M 18             
1 46487U 20068B   26141.68926389  .00000022  00000+0  89132-4 0  9990
2 46487  82.4954   3.1173 0020751  88.9137 271.4320 12.42871606255850
GONETS-M 19             
1 46488U 20068C   26141.74556938 -.00000057  00000+0 -48493-3 0  9991
2 46488  82.4979   3.5277 0014397 102.6465 257.6225 12.42891074255967
DEKART                  
1 46493U 20068H   26141.70999985  .00008680  00000+0  24458-3 0  9999
2 46493  97.8753 149.0984 0009735  31.2175 328.9644 15.36662882311700
NORBI                   
1 46494U 20068J   26141.71613314  .00015956  00000+0  31534-3 0  9997
2 46494  97.8645 155.3731 0006355  13.8415 346.3006 15.47208642312113
