OBJECT_NAME,OBJECT_ID,EPOCH,MEAN_MOTION,ECCENTRICITY,INCLINATION,RA_OF_ASC_NODE,ARG_OF_PERICENTER,MEAN_ANOMALY,EPHEMERIS_TYPE,CLASSIFICATION_TYPE,NORAD_CAT_ID,ELEMENT_SET_NO,REV_AT_EPOCH,BSTAR,MEAN_MOTION_DOT,MEAN_MOTION_DDOT
SHUNTIAN,2019-093H,2026-05-21T18:31:24.569760,14.95003589,.0012389,97.7993,230.0708,148.2620,211.9349,0,U,44886,999,34823,.16378E-3,.1735E-4,0
ELEKTRO-L 3,2019-095A,2026-05-21T17:58:17.258304,1.00270996,.0001013,0.1908,80.4358,323.2091,181.2525,0,U,44903,999,2344,0,-.104E-5,0
GONETS-M 14,2019-096A,2026-05-21T17:24:20.316096,12.42869015,.0012408,82.5218,101.0454,206.9560,153.0876,0,U,44905,999,29039,.52952E-3,.83E-6,0
GONETS-M 15,2019-096B,2026-05-21T18:06:43.093152,12.42870583,.0014004,82.5237,101.4844,231.9040,128.0777,0,U,44906,999,29036,.10073E-2,.149E-5,0
GONETS-M 16,2019-096C,2026-05-21T16:49:12.832608,12.42891226,.0009678,82.5183,100.4827,279.0833,80.9151,0,U,44907,999,29034,.11285E-2,.166E-5,0
RS-44 & BREEZE-KM R/B,2019-096E,2026-05-21T13:54:53.202816,12.79748401,.021697,82.5229,357.3892,206.3471,152.6467,0,U,44909,999,29894,.37434E-4,.2E-6,0
JILIN-1 KUANFU 01,2020-003A,2026-05-21T17:22:15.604608,15.10553968,.0010663,97.5031,216.1979,41.9626,318.2418,0,U,45016,999,35133,.10102E-3,.1605E-4,0
XINGYUN-2 01,2020-028A,2026-05-21T17:34:03.034848,15.11677062,.0007658,97.4863,134.6611,302.3776,57.6713,0,U,45602,999,33084,.73735E-4,.1191E-4,0
XINGYUN-2 02,2020-028B,2026-05-21T16:56:35.167776,15.11411075,.0011403,97.5073,148.1655,12.2551,347.8954,0,U,45603,999,33083,.58446E-4,.924E-5,0
HAIYANG-1D,2020-036A,2026-05-21T17:46:39.002016,14.34162862,.0001791,98.4552,83.9974,205.1221,154.9877,0,U,45721,999,31118,.22027E-4,.19E-6,0
M2 PATHFINDER,2020-037E,2026-05-21T12:16:55.782336,15.04541732,.0010057,97.8155,332.4456,238.9667,121.0571,0,U,45727,999,32148,.70978E-4,.931E-5,0
GAOFEN DUOMO (GFDM),2020-042A,2026-05-21T17:11:19.049280,14.76836963,.0011568,97.7754,202.5632,151.7613,208.4227,0,U,45856,999,31710,.49739E-4,.3E-5,0
ZIYUAN 3-03 (ZY 3-03),2020-051A,2026-05-21T17:51:46.103904,15.21287190,.0005715,97.2833,210.3227,51.4980,308.6767,0,U,45939,999,32332,.82647E-4,.1781E-4,0
NEMO-HD,2020-061F,2026-05-21T16:37:31.321632,15.43995613,.0002685,97.1929,203.9224,113.0802,247.0730,0,U,46277,999,31789,.15729E-3,.7082E-4,0
NAPA-1,2020-061BA,2026-05-21T17:04:31.833120,15.64426013,.0001838,97.2477,215.0913,140.1344,220.0051,0,U,46320,999,31759,.44175E-3,.42372E-3,0
JILIN-1 GAOFEN 3E,2020-065D,2026-05-21T18:20:14.951616,15.60411542,.0010278,97.2277,193.8219,247.9305,112.0861,0,U,46457,999,31563,.47875E-3,.3939E-3,0
JILIN-1 GAOFEN 3F,2020-065E,2026-05-21T17:55:20.127072,15.58127197,.0011894,97.2231,191.2568,236.8938,123.1177,0,U,46458,999,31558,.46528E-3,.3512E-3,0
JILIN-1 GAOFEN 3G,2020-065F,2026-05-21T17:46:26.390208,15.66466691,.0012654,97.2302,197.6545,144.6593,215.5509,0,U,46459,999,31579,.54816E-3,.57386E-3,0
JILIN-1 GAOFEN 3H,2020-065G,2026-05-21T17:24:48.871296,15.63865947,.0008555,97.2247,194.1088,95.2012,265.0224,0,U,46460,999,31574,.50346E-3,.47364E-3,0
HAIYANG-2C,2020-066A,2026-05-21T18:40:35.362848,13.83371488,.0009867,65.9981,281.0353,239.3751,120.6345,0,U,46469,999,28584,-.11034E-3,-.203E-5,0
HJ-2A,2020-067A,2026-05-21T17:40:32.545920,14.76574512,.0003591,97.8823,220.7320,16.8026,343.3302,0,U,46478,999,30435,.10448E-3,.679E-5,0
HJ-2B,2020-067B,2026-05-21T18:33:01.133856,14.76518264,.0001196,97.8886,221.7694,77.3034,282.8310,0,U,46479,999,30436,.57142E-4,.348E-5,0
GONETS-M 17,2020-068A,2026-05-21T17:24:52.526016,12.42872040,.0023431,82.5000,3.9667,92.3872,267.9890,0,U,46486,999,25587,-.27545E-3,-.28E-6,0
GONETS-M 18,2020-068B,2026-05-21T16:32:32.400096,12.42871606,.0020751,82.4954,3.1173,88.9137,271.4320,0,U,46487,999,25585,.89132E-4,.22E-6,0
GONETS-M 19,2020-068C,2026-05-21T17:53:37.194432,12.42891074,.0014397,82.4979,3.5277,102.6465,257.6225,0,U,46488,999,25596,-.48493E-3,-.57E-6,0
DEKART,2020-068H,2026-05-21T17:02:23.987040,15.36662882,.0009735,97.8753,149.0984,31.2175,328.9644,0,U,46493,999,31170,.24458E-3,.868E-4,0
NORBI,2020-068J,2026-05-21T17:11:13.903296,15.47208642,.0006355,97.8645,155.3731,13.8415,346.3006,0,U,46494,999,31211,.31534E-3,.15956E-3,0
